{
  "norad_id": 62429,
  "name": "STARLINK-32418",
  "history": [
    {
      "epoch": "2026-04-12T18:03:00.194112Z",
      "apogee_km": 483.537259161797,
      "perigee_km": 482.45251421051216,
      "latitude_deg": 1.853437292294981e-05,
      "longitude_deg": 9.948997424177012,
      "height_km": 482.59759799055973,
      "semi_major_axis_km": 6861.131886686154,
      "eccentricity": 7.905e-05,
      "inclination_deg": 42.9996,
      "raan_deg": 121.6525,
      "arg_perigee_deg": 288.645,
      "mean_anomaly_deg": 71.4316,
      "mean_motion_rev_day": 15.27598104
    },
    {
      "epoch": "2026-04-14T17:07:40.876320Z",
      "apogee_km": 483.6236825949554,
      "perigee_km": 482.46414302069115,
      "latitude_deg": 9.566715146863562e-06,
      "longitude_deg": 10.766156785051944,
      "height_km": 482.6739474994506,
      "semi_major_axis_km": 6861.180912807823,
      "eccentricity": 8.45e-05,
      "inclination_deg": 42.9998,
      "raan_deg": 110.5726,
      "arg_perigee_deg": 284.6017,
      "mean_anomaly_deg": 75.4741,
      "mean_motion_rev_day": 15.27581731
    },
    {
      "epoch": "2026-04-15T16:40:01.554816Z",
      "apogee_km": 483.696601400733,
      "perigee_km": 482.36141849519754,
      "latitude_deg": -2.947004370584942e-05,
      "longitude_deg": 11.172641017669205,
      "height_km": 482.64141216403124,
      "semi_major_axis_km": 6861.166009947965,
      "eccentricity": 9.73e-05,
      "inclination_deg": 42.9975,
      "raan_deg": 105.032,
      "arg_perigee_deg": 284.1902,
      "mean_anomaly_deg": 75.8841,
      "mean_motion_rev_day": 15.27586708
    },
    {
      "epoch": "2026-04-16T16:12:22.510656Z",
      "apogee_km": 483.31352604486347,
      "perigee_km": 482.7893312489141,
      "latitude_deg": 3.711182245827793e-05,
      "longitude_deg": 11.5813791965924,
      "height_km": 482.7811817593108,
      "semi_major_axis_km": 6861.1884286468885,
      "eccentricity": 3.82e-05,
      "inclination_deg": 42.9983,
      "raan_deg": 99.4947,
      "arg_perigee_deg": 280.073,
      "mean_anomaly_deg": 80.0079,
      "mean_motion_rev_day": 15.27579221
    },
    {
      "epoch": "2026-04-17T15:44:43.631520Z",
      "apogee_km": 483.4151558839967,
      "perigee_km": 482.6676991061049,
      "latitude_deg": 2.5062411370877136e-05,
      "longitude_deg": 11.986843514376734,
      "height_km": 482.8970963808363,
      "semi_major_axis_km": 6861.1784274950505,
      "eccentricity": 5.447e-05,
      "inclination_deg": 43.0002,
      "raan_deg": 93.9549,
      "arg_perigee_deg": 257.6821,
      "mean_anomaly_deg": 102.397,
      "mean_motion_rev_day": 15.27582561
    },
    {
      "epoch": "2026-04-19T14:49:24.743136Z",
      "apogee_km": 483.313240887107,
      "perigee_km": 482.68476082942834,
      "latitude_deg": -9.140639576036999e-06,
      "longitude_deg": 12.80107993839305,
      "height_km": 482.6080731639976,
      "semi_major_axis_km": 6861.136000858267,
      "eccentricity": 4.58e-05,
      "inclination_deg": 43.0001,
      "raan_deg": 82.8739,
      "arg_perigee_deg": 58.1201,
      "mean_anomaly_deg": 301.9695,
      "mean_motion_rev_day": 15.2759673
    },
    {
      "epoch": "2026-04-20T14:21:46.346976Z",
      "apogee_km": 483.6417209379888,
      "perigee_km": 482.4846481388686,
      "latitude_deg": 1.787715337228334e-05,
      "longitude_deg": 13.20796483375509,
      "height_km": 482.94855791846385,
      "semi_major_axis_km": 6861.200184538428,
      "eccentricity": 8.432e-05,
      "inclination_deg": 43.0009,
      "raan_deg": 77.3375,
      "arg_perigee_deg": 259.1317,
      "mean_anomaly_deg": 100.944,
      "mean_motion_rev_day": 15.27575295
    },
    {
      "epoch": "2026-04-21T13:54:06.468192Z",
      "apogee_km": 483.5331757109143,
      "perigee_km": 482.4161867292114,
      "latitude_deg": 6.0119157512158974e-05,
      "longitude_deg": 13.618559871084866,
      "height_km": 482.8848983817775,
      "semi_major_axis_km": 6861.111681220063,
      "eccentricity": 8.14e-05,
      "inclination_deg": 43.0037,
      "raan_deg": 71.7986,
      "arg_perigee_deg": 256.1533,
      "mean_anomaly_deg": 103.9229,
      "mean_motion_rev_day": 15.27604852
    },
    {
      "epoch": "2026-04-22T05:35:39.663744Z",
      "apogee_km": 483.91387229891825,
      "perigee_km": 482.06493595553457,
      "latitude_deg": 9.618011164865887e-06,
      "longitude_deg": 133.89301924811576,
      "height_km": 482.9896276047591,
      "semi_major_axis_km": 6861.126404127226,
      "eccentricity": 0.00013474,
      "inclination_deg": 43.0025,
      "raan_deg": 68.1059,
      "arg_perigee_deg": 256.0188,
      "mean_anomaly_deg": 104.0514,
      "mean_motion_rev_day": 15.27599935
    },
    {
      "epoch": "2026-04-23T12:58:48.776448Z",
      "apogee_km": 483.888727225416,
      "perigee_km": 482.22845511626383,
      "latitude_deg": 2.1287805993834443e-05,
      "longitude_deg": 14.432187610018648,
      "height_km": 483.0253725793486,
      "semi_major_axis_km": 6861.195591170839,
      "eccentricity": 0.00012099,
      "inclination_deg": 43.0009,
      "raan_deg": 60.722,
      "arg_perigee_deg": 256.7551,
      "mean_anomaly_deg": 103.3166,
      "mean_motion_rev_day": 15.27576829
    },
    {
      "epoch": "2026-04-24T20:21:55.922688Z",
      "apogee_km": 483.6180178503255,
      "perigee_km": 482.37340837616557,
      "latitude_deg": -6.941129826171707e-05,
      "longitude_deg": -105.02243592244388,
      "height_km": 482.927894629576,
      "semi_major_axis_km": 6861.132713113245,
      "eccentricity": 9.07e-05,
      "inclination_deg": 42.9997,
      "raan_deg": 53.3362,
      "arg_perigee_deg": 255.4841,
      "mean_anomaly_deg": 104.5909,
      "mean_motion_rev_day": 15.27597828
    },
    {
      "epoch": "2026-04-25T12:03:29.709216Z",
      "apogee_km": 483.69687000222984,
      "perigee_km": 482.3534544508648,
      "latitude_deg": 2.403852291251788e-05,
      "longitude_deg": 15.249109323515775,
      "height_km": 482.7583774621126,
      "semi_major_axis_km": 6861.162162226547,
      "eccentricity": 9.79e-05,
      "inclination_deg": 43.0008,
      "raan_deg": 49.6429,
      "arg_perigee_deg": 273.6888,
      "mean_anomaly_deg": 86.3852,
      "mean_motion_rev_day": 15.27587993
    },
    {
      "epoch": "2026-04-26T11:35:50.411904Z",
      "apogee_km": 483.8435846010625,
      "perigee_km": 482.1738561785496,
      "latitude_deg": 3.117904876656609e-05,
      "longitude_deg": 15.656440144816264,
      "height_km": 482.4035715168598,
      "semi_major_axis_km": 6861.145720389806,
      "eccentricity": 0.00012168,
      "inclination_deg": 43.0014,
      "raan_deg": 44.1032,
      "arg_perigee_deg": 297.2132,
      "mean_anomaly_deg": 62.8596,
      "mean_motion_rev_day": 15.27593484
    }
  ]
}